ONEWEB-0377             
1 49303U 21090AA  25260.89171875  .00000089  00000+0  18704-3 0  9991
2 49303  87.9277 328.7223 0002140 102.3645 257.7728 13.20772570194574
ONEWEB-0378             
1 49304U 21090AB  25261.14103780  .00000107  00000+0  23073-3 0  9997
2 49304  87.9281 328.6863 0002011  95.2851 264.8512 13.20768435193872
ONEWEB-0379             
1 49305U 21090AC  25261.22123985  .00000285  00000+0  73376-3 0  9994
2 49305  87.9082 343.8584 0001811  97.7867 262.3469 13.14504636191834
ONEWEB-0380             
1 49306U 21090AD  25261.23028940  .00000048  00000+0  88642-4 0  9991
2 49306  87.9285 359.0566 0002036 100.0290 260.1072 13.19725030190559
ONEWEB-0381             
1 49307U 21090AE  25261.19144711 -.00000035  00000+0 -11783-3 0  9991
2 49307  87.9267 328.6713 0002148  93.4592 266.6787 13.20771547193924
ONEWEB-0382             
1 49308U 21090AF  25260.95154227 -.00000038  00000+0 -12573-3 0  9999
2 49308  87.9268 328.7100 0002074  90.2605 269.8766 13.20771266193880
ONEWEB-0383             
1 49309U 21090AG  25261.21489946  .00000200  00000+0  50629-3 0  9992
2 49309  87.9090 343.8406 0001805  94.7145 265.4191 13.14504075191865
ONEWEB-0384             
1 49310U 21090AH  25260.71926019 -.00000025  00000+0 -94171-4 0  9993
2 49310  87.9287 328.7817 0002099  84.4194 275.7179 13.20790368193860
ONEWEB-0385             
1 49311U 21090AJ  25260.71637969 -.00000195  00000+0 -51232-3 0  9995
2 49311  87.9263 328.7678 0001945  94.8769 265.2586 13.20771495193835
ONEWEB-0386             
1 49312U 21090AK  25261.11253198  .00000049  00000+0  87678-4 0  9999
2 49312  87.9272 328.6655 0001969  90.0197 270.1162 13.20771846193902
ONEWEB-0387             
1 49313U 21090AL  25260.71795838  .00000009  00000+0 -97129-5 0  9997
2 49313  87.9264 328.7972 0002248  96.9637 263.1752 13.20771128193856
ONEWEB-0388             
1 49314U 21090AM  25261.22555670  .00000070  00000+0  14231-3 0  9991
2 49314  87.9285 359.0639 0001888  95.6822 264.4526 13.19724431190547
ONEWEB-0389             
1 50469U 21132A   25260.96755280 -.00000080  00000+0 -23874-3 0  9996
2 50469  87.9053  60.0148 0002067  89.1827 270.9541 13.17648958182233
ONEWEB-0390             
1 50470U 21132B   25260.96923992  .00000068  00000+0  14249-3 0  9995
2 50470  87.9055  60.0206 0001844 101.7812 258.3527 13.17649122182237
ONEWEB-0391             
1 50471U 21132C   25260.97092025  .00000004  00000+0 -22454-4 0  9990
2 50471  87.9047  60.0327 0002611  93.6435 266.4996 13.17646829182237
ONEWEB-0392             
1 50472U 21132D   25260.92535233 -.00000248  00000+0 -67300-3 0  9998
2 50472  87.9053  59.9877 0002159  90.5309 269.6070 13.17648512182267
