[{"OBJECT_NAME":"ONEWEB-0377","OBJECT_ID":"2021-090AA","EPOCH":"2025-09-17T21:24:04.500000","MEAN_MOTION":13.2077257,"ECCENTRICITY":0.00021404,"INCLINATION":87.9277,"RA_OF_ASC_NODE":328.7223,"ARG_OF_PERICENTER":102.3645,"MEAN_ANOMALY":257.7728,"EPHEMERIS_TYPE":0,"CLASSIFICATION_TYPE":"U","NORAD_CAT_ID":49303,"ELEMENT_SET_NO":999,"REV_AT_EPOCH":19457,"BSTAR":0.00018704065,"MEAN_MOTION_DOT":8.9e-7,"MEAN_MOTION_DDOT":0},{"OBJECT_NAME":"ONEWEB-0378","OBJECT_ID":"2021-090AB","EPOCH":"2025-09-18T03:23:05.665920","MEAN_MOTION":13.20768435,"ECCENTRICITY":0.00020112,"INCLINATION":87.9281,"RA_OF_ASC_NODE":328.6863,"ARG_OF_PERICENTER":95.2851,"MEAN_ANOMALY":264.8512,"EPHEMERIS_TYPE":0,"CLASSIFICATION_TYPE":"U","NORAD_CAT_ID":49304,"ELEMENT_SET_NO":999,"REV_AT_EPOCH":19387,"BSTAR":0.00023072556,"MEAN_MOTION_DOT":1.07e-6,"MEAN_MOTION_DDOT":0},{"OBJECT_NAME":"ONEWEB-0379","OBJECT_ID":"2021-090AC","EPOCH":"2025-09-18T05:18:35.123040","MEAN_MOTION":13.14504636,"ECCENTRICITY":0.00018118,"INCLINATION":87.9082,"RA_OF_ASC_NODE":343.8584,"ARG_OF_PERICENTER":97.7867,"MEAN_ANOMALY":262.3469,"EPHEMERIS_TYPE":0,"CLASSIFICATION_TYPE":"U","NORAD_CAT_ID":49305,"ELEMENT_SET_NO":999,"REV_AT_EPOCH":19183,"BSTAR":0.00073376459,"MEAN_MOTION_DOT":2.85e-6,"MEAN_MOTION_DDOT":0},{"OBJECT_NAME":"ONEWEB-0380","OBJECT_ID":"2021-090AD","EPOCH":"2025-09-18T05:31:37.004160","MEAN_MOTION":13.1972503,"ECCENTRICITY":0.00020365,"INCLINATION":87.9285,"RA_OF_ASC_NODE":359.0566,"ARG_OF_PERICENTER":100.029,"MEAN_ANOMALY":260.1072,"EPHEMERIS_TYPE":0,"CLASSIFICATION_TYPE":"U","NORAD_CAT_ID":49306,"ELEMENT_SET_NO":999,"REV_AT_EPOCH":19055,"BSTAR":8.8641671e-5,"MEAN_MOTION_DOT":4.8e-7,"MEAN_MOTION_DDOT":0},{"OBJECT_NAME":"ONEWEB-0381","OBJECT_ID":"2021-090AE","EPOCH":"2025-09-18T04:35:41.030304","MEAN_MOTION":13.20771547,"ECCENTRICITY":0.00021484,"INCLINATION":87.9267,"RA_OF_ASC_NODE":328.6713,"ARG_OF_PERICENTER":93.4592,"MEAN_ANOMALY":266.6787,"EPHEMERIS_TYPE":0,"CLASSIFICATION_TYPE":"U","NORAD_CAT_ID":49307,"ELEMENT_SET_NO":999,"REV_AT_EPOCH":19392,"BSTAR":-0.0001178259,"MEAN_MOTION_DOT":-3.5e-7,"MEAN_MOTION_DDOT":0},{"OBJECT_NAME":"ONEWEB-0382","OBJECT_ID":"2021-090AF","EPOCH":"2025-09-17T22:50:13.252128","MEAN_MOTION":13.20771266,"ECCENTRICITY":0.00020741,"INCLINATION":87.9268,"RA_OF_ASC_NODE":328.71,"ARG_OF_PERICENTER":90.2605,"MEAN_ANOMALY":269.8766,"EPHEMERIS_TYPE":0,"CLASSIFICATION_TYPE":"U","NORAD_CAT_ID":49308,"ELEMENT_SET_NO":999,"REV_AT_EPOCH":19388,"BSTAR":-0.00012573004,"MEAN_MOTION_DOT":-3.8e-7,"MEAN_MOTION_DDOT":0},{"OBJECT_NAME":"ONEWEB-0383","OBJECT_ID":"2021-090AG","EPOCH":"2025-09-18T05:09:27.313344","MEAN_MOTION":13.14504075,"ECCENTRICITY":0.00018052,"INCLINATION":87.909,"RA_OF_ASC_NODE":343.8406,"ARG_OF_PERICENTER":94.7145,"MEAN_ANOMALY":265.4191,"EPHEMERIS_TYPE":0,"CLASSIFICATION_TYPE":"U","NORAD_CAT_ID":49309,"ELEMENT_SET_NO":999,"REV_AT_EPOCH":19186,"BSTAR":0.00050628756,"MEAN_MOTION_DOT":2.0e-6,"MEAN_MOTION_DDOT":0},{"OBJECT_NAME":"ONEWEB-0384","OBJECT_ID":"2021-090AH","EPOCH":"2025-09-17T17:15:44.080416","MEAN_MOTION":13.20790368,"ECCENTRICITY":0.00020999,"INCLINATION":87.9287,"RA_OF_ASC_NODE":328.7817,"ARG_OF_PERICENTER":84.4194,"MEAN_ANOMALY":275.7179,"EPHEMERIS_TYPE":0,"CLASSIFICATION_TYPE":"U","NORAD_CAT_ID":49310,"ELEMENT_SET_NO":999,"REV_AT_EPOCH":19386,"BSTAR":-9.4171183e-5,"MEAN_MOTION_DOT":-2.5e-7,"MEAN_MOTION_DDOT":0},{"OBJECT_NAME":"ONEWEB-0385","OBJECT_ID":"2021-090AJ","EPOCH":"2025-09-17T17:11:35.205216","MEAN_MOTION":13.20771495,"ECCENTRICITY":0.0001945,"INCLINATION":87.9263,"RA_OF_ASC_NODE":328.7678,"ARG_OF_PERICENTER":94.8769,"MEAN_ANOMALY":265.2586,"EPHEMERIS_TYPE":0,"CLASSIFICATION_TYPE":"U","NORAD_CAT_ID":49311,"ELEMENT_SET_NO":999,"REV_AT_EPOCH":19383,"BSTAR":-0.00051232003,"MEAN_MOTION_DOT":-1.95e-6,"MEAN_MOTION_DDOT":0},{"OBJECT_NAME":"ONEWEB-0386","OBJECT_ID":"2021-090AK","EPOCH":"2025-09-18T02:42:02.763072","MEAN_MOTION":13.20771846,"ECCENTRICITY":0.00019695,"INCLINATION":87.9272,"RA_OF_ASC_NODE":328.6655,"ARG_OF_PERICENTER":90.0197,"MEAN_ANOMALY":270.1162,"EPHEMERIS_TYPE":0,"CLASSIFICATION_TYPE":"U","NORAD_CAT_ID":49312,"ELEMENT_SET_NO":999,"REV_AT_EPOCH":19390,"BSTAR":8.767771e-5,"MEAN_MOTION_DOT":4.9e-7,"MEAN_MOTION_DDOT":0},{"OBJECT_NAME":"ONEWEB-0387","OBJECT_ID":"2021-090AL","EPOCH":"2025-09-17T17:13:51.604032","MEAN_MOTION":13.20771128,"ECCENTRICITY":0.00022488,"INCLINATION":87.9264,"RA_OF_ASC_NODE":328.7972,"ARG_OF_PERICENTER":96.9637,"MEAN_ANOMALY":263.1752,"EPHEMERIS_TYPE":0,"CLASSIFICATION_TYPE":"U","NORAD_CAT_ID":49313,"ELEMENT_SET_NO":999,"REV_AT_EPOCH":19385,"BSTAR":-9.712879e-6,"MEAN_MOTION_DOT":9.0e-8,"MEAN_MOTION_DDOT":0},{"OBJECT_NAME":"ONEWEB-0388","OBJECT_ID":"2021-090AM","EPOCH":"2025-09-18T05:24:48.098880","MEAN_MOTION":13.19724431,"ECCENTRICITY":0.00018884,"INCLINATION":87.9285,"RA_OF_ASC_NODE":359.0639,"ARG_OF_PERICENTER":95.6822,"MEAN_ANOMALY":264.4526,"EPHEMERIS_TYPE":0,"CLASSIFICATION_TYPE":"U","NORAD_CAT_ID":49314,"ELEMENT_SET_NO":999,"REV_AT_EPOCH":19054,"BSTAR":0.00014230955,"MEAN_MOTION_DOT":7.0e-7,"MEAN_MOTION_DDOT":0},{"OBJECT_NAME":"ONEWEB-0389","OBJECT_ID":"2021-132A","EPOCH":"2025-09-17T23:13:16.561920","MEAN_MOTION":13.17648958,"ECCENTRICITY":0.00020676,"INCLINATION":87.9053,"RA_OF_ASC_NODE":60.0148,"ARG_OF_PERICENTER":89.1827,"MEAN_ANOMALY":270.9541,"EPHEMERIS_TYPE":0,"CLASSIFICATION_TYPE":"U","NORAD_CAT_ID":50469,"ELEMENT_SET_NO":999,"REV_AT_EPOCH":18223,"BSTAR":-0.00023874197,"MEAN_MOTION_DOT":-8.0e-7,"MEAN_MOTION_DDOT":0},{"OBJECT_NAME":"ONEWEB-0390","OBJECT_ID":"2021-132B","EPOCH":"2025-09-17T23:15:42.329088","MEAN_MOTION":13.17649122,"ECCENTRICITY":0.00018446,"INCLINATION":87.9055,"RA_OF_ASC_NODE":60.0206,"ARG_OF_PERICENTER":101.7812,"MEAN_ANOMALY":258.3527,"EPHEMERIS_TYPE":0,"CLASSIFICATION_TYPE":"U","NORAD_CAT_ID":50470,"ELEMENT_SET_NO":999,"REV_AT_EPOCH":18223,"BSTAR":0.00014249176,"MEAN_MOTION_DOT":6.8e-7,"MEAN_MOTION_DDOT":0},{"OBJECT_NAME":"ONEWEB-0391","OBJECT_ID":"2021-132C","EPOCH":"2025-09-17T23:18:07.509600","MEAN_MOTION":13.17646829,"ECCENTRICITY":0.00026114,"INCLINATION":87.9047,"RA_OF_ASC_NODE":60.0327,"ARG_OF_PERICENTER":93.6435,"MEAN_ANOMALY":266.4996,"EPHEMERIS_TYPE":0,"CLASSIFICATION_TYPE":"U","NORAD_CAT_ID":50471,"ELEMENT_SET_NO":999,"REV_AT_EPOCH":18223,"BSTAR":-2.2453598e-5,"MEAN_MOTION_DOT":4.0e-8,"MEAN_MOTION_DDOT":0},{"OBJECT_NAME":"ONEWEB-0392","OBJECT_ID":"2021-132D","EPOCH":"2025-09-17T22:12:30.441312","MEAN_MOTION":13.17648512,"ECCENTRICITY":0.00021596,"INCLINATION":87.9053,"RA_OF_ASC_NODE":59.9877,"ARG_OF_PERICENTER":90.5309,"MEAN_ANOMALY":269.607,"EPHEMERIS_TYPE":0,"CLASSIFICATION_TYPE":"U","NORAD_CAT_ID":50472,"ELEMENT_SET_NO":999,"REV_AT_EPOCH":18226,"BSTAR":-0.00067300171,"MEAN_MOTION_DOT":-2.48e-6,"MEAN_MOTION_DDOT":0}]
